{
 "generated_at": "2026-06-27T07:50:14Z",
 "sources": [
  {
   "name": "CelesTrak",
   "url": "https://celestrak.org/NORAD/elements/",
   "license": "frei verfügbar; Attribution. Ursprünglich USSPACECOM/Space-Track."
  },
  {
   "name": "GCAT (J. McDowell, planet4589.org)",
   "url": "https://planet4589.org/space/gcat/",
   "license": "CC-BY 4.0"
  }
 ],
 "satellites": [
  {
   "norad": 68485,
   "name": "CAPELLA-20 (ACADIA-10)",
   "intl": "2026-067BX",
   "group": "sar",
   "gcat": {
    "class": "B",
    "category": "IMG-R",
    "owner": "CAPSP",
    "state": "US"
   },
   "omm": {
    "OBJECT_NAME": "CAPELLA-20 (ACADIA-10)",
    "OBJECT_ID": "2026-067BX",
    "EPOCH": "2026-06-26T22:00:01.999584",
    "MEAN_MOTION": 14.91657302,
    "ECCENTRICITY": 0.00003355,
    "INCLINATION": 97.7568,
    "RA_OF_ASC_NODE": 136.0541,
    "ARG_OF_PERICENTER": 24.628,
    "MEAN_ANOMALY": 139.9895,
    "EPHEMERIS_TYPE": 0,
    "CLASSIFICATION_TYPE": "U",
    "NORAD_CAT_ID": 68485,
    "ELEMENT_SET_NO": 999,
    "REV_AT_EPOCH": 570,
    "BSTAR": -0.00089903354,
    "MEAN_MOTION_DOT": -0.00009074,
    "MEAN_MOTION_DDOT": 0
   }
  },
  {
   "norad": 40718,
   "name": "CARBONITE 1 (CBNT-1)",
   "intl": "2015-032D",
   "group": "resource",
   "gcat": {
    "class": "B",
    "category": "IMG",
    "owner": "SSTLA",
    "state": "UK"
   },
   "omm": {
    "OBJECT_NAME": "CARBONITE 1 (CBNT-1)",
    "OBJECT_ID": "2015-032D",
    "EPOCH": "2026-06-26T23:05:20.969664",
    "MEAN_MOTION": 14.83614403,
    "ECCENTRICITY": 0.00129378,
    "INCLINATION": 97.651,
    "RA_OF_ASC_NODE": 355.6195,
    "ARG_OF_PERICENTER": 262.6611,
    "MEAN_ANOMALY": 97.3134,
    "EPHEMERIS_TYPE": 0,
    "CLASSIFICATION_TYPE": "U",
    "NORAD_CAT_ID": 40718,
    "ELEMENT_SET_NO": 999,
    "REV_AT_EPOCH": 59079,
    "BSTAR": 0.00020947555,
    "MEAN_MOTION_DOT": 0.00001679,
    "MEAN_MOTION_DDOT": 0
   }
  },
  {
   "norad": 67397,
   "name": "CARBSAR",
   "intl": "2026-004AL",
   "group": "sar",
   "gcat": {
    "class": "B",
    "category": "IMG-R",
    "owner": "SSTL",
    "state": "UK"
   },
   "omm": {
    "OBJECT_NAME": "CARBSAR",
    "OBJECT_ID": "2026-004AL",
    "EPOCH": "2026-06-26T23:42:00.722304",
    "MEAN_MOTION": 15.1969442,
    "ECCENTRICITY": 0.00039194,
    "INCLINATION": 97.4535,
    "RA_OF_ASC_NODE": 177.0365,
    "ARG_OF_PERICENTER": 316.5693,
    "MEAN_ANOMALY": 43.5233,
    "EPHEMERIS_TYPE": 0,
    "CLASSIFICATION_TYPE": "U",
    "NORAD_CAT_ID": 67397,
    "ELEMENT_SET_NO": 999,
    "REV_AT_EPOCH": 2525,
    "BSTAR": 0.000403966,
    "MEAN_MOTION_DOT": 0.00008561,
    "MEAN_MOTION_DDOT": 0
   }
  },
  {
   "norad": 32783,
   "name": "CARTOSAT-2A",
   "intl": "2008-021A",
   "group": "resource",
   "gcat": {
    "class": "D",
    "category": "IMG",
    "owner": "ISRO",
    "state": "IN"
   },
   "omm": {
    "OBJECT_NAME": "CARTOSAT-2A",
    "OBJECT_ID": "2008-021A",
    "EPOCH": "2026-06-26T23:45:44.371296",
    "MEAN_MOTION": 14.79253255,
    "ECCENTRICITY": 0.00133749,
    "INCLINATION": 97.7635,
    "RA_OF_ASC_NODE": 226.3641,
    "ARG_OF_PERICENTER": 80.5378,
    "MEAN_ANOMALY": 279.7345,
    "EPHEMERIS_TYPE": 0,
    "CLASSIFICATION_TYPE": "U",
    "NORAD_CAT_ID": 32783,
    "ELEMENT_SET_NO": 999,
    "REV_AT_EPOCH": 98025,
    "BSTAR": 0.00012320764,
    "MEAN_MOTION_DOT": 0.00000867,
    "MEAN_MOTION_DDOT": 0
   }
  },
  {
   "norad": 36795,
   "name": "CARTOSAT-2B",
   "intl": "2010-035A",
   "group": "resource",
   "gcat": {
    "class": "D",
    "category": "IMG",
    "owner": "ISRO",
    "state": "IN"
   },
   "omm": {
    "OBJECT_NAME": "CARTOSAT-2B",
    "OBJECT_ID": "2010-035A",
    "EPOCH": "2026-06-26T22:46:14.184192",
    "MEAN_MOTION": 14.78671641,
    "ECCENTRICITY": 0.00120006,
    "INCLINATION": 97.9954,
    "RA_OF_ASC_NODE": 228.4365,
    "ARG_OF_PERICENTER": 152.6364,
    "MEAN_ANOMALY": 207.5482,
    "EPHEMERIS_TYPE": 0,
    "CLASSIFICATION_TYPE": "U",
    "NORAD_CAT_ID": 36795,
    "ELEMENT_SET_NO": 999,
    "REV_AT_EPOCH": 86129,
    "BSTAR": 0.000059874853,
    "MEAN_MOTION_DOT": 0.00000387,
    "MEAN_MOTION_DDOT": 0
   }
  },
  {
   "norad": 41599,
   "name": "CARTOSAT-2C",
   "intl": "2016-040A",
   "group": "resource",
   "gcat": {
    "class": "D",
    "category": "IMG",
    "owner": "ISRO",
    "state": "IN"
   },
   "omm": {
    "OBJECT_NAME": "CARTOSAT-2C",
    "OBJECT_ID": "2016-040A",
    "EPOCH": "2026-06-26T22:34:00.787296",
    "MEAN_MOTION": 15.19264103,
    "ECCENTRICITY": 0.00105314,
    "INCLINATION": 97.4486,
    "RA_OF_ASC_NODE": 237.784,
    "ARG_OF_PERICENTER": 101.4507,
    "MEAN_ANOMALY": 258.7911,
    "EPHEMERIS_TYPE": 0,
    "CLASSIFICATION_TYPE": "U",
    "NORAD_CAT_ID": 41599,
    "ELEMENT_SET_NO": 999,
    "REV_AT_EPOCH": 55519,
    "BSTAR": 0.00020275876,
    "MEAN_MOTION_DOT": 0.00004212,
    "MEAN_MOTION_DDOT": 0
   }
  },
  {
   "norad": 41948,
   "name": "CARTOSAT-2D",
   "intl": "2017-008A",
   "group": "resource",
   "gcat": {
    "class": "D",
    "category": "IMG",
    "owner": "ISRO",
    "state": "IN"
   },
   "omm": {
    "OBJECT_NAME": "CARTOSAT-2D",
    "OBJECT_ID": "2017-008A",
    "EPOCH": "2026-06-26T23:20:01.379616",
    "MEAN_MOTION": 15.19277933,
    "ECCENTRICITY": 0.00047336,
    "INCLINATION": 97.4108,
    "RA_OF_ASC_NODE": 237.0954,
    "ARG_OF_PERICENTER": 194.1076,
    "MEAN_ANOMALY": 166.0027,
    "EPHEMERIS_TYPE": 0,
    "CLASSIFICATION_TYPE": "U",
    "NORAD_CAT_ID": 41948,
    "ELEMENT_SET_NO": 999,
    "REV_AT_EPOCH": 51906,
    "BSTAR": 0.00022752891,
    "MEAN_MOTION_DOT": 0.00004733,
    "MEAN_MOTION_DDOT": 0
   }
  },
  {
   "norad": 42767,
   "name": "CARTOSAT-2E",
   "intl": "2017-036C",
   "group": "resource",
   "gcat": {
    "class": "D",
    "category": "IMG",
    "owner": "ISRO",
    "state": "IN"
   },
   "omm": {
    "OBJECT_NAME": "CARTOSAT-2E",
    "OBJECT_ID": "2017-036C",
    "EPOCH": "2026-06-26T23:45:29.500128",
    "MEAN_MOTION": 15.19236356,
    "ECCENTRICITY": 0.00022037,
    "INCLINATION": 97.4275,
    "RA_OF_ASC_NODE": 237.631,
    "ARG_OF_PERICENTER": 271.5104,
    "MEAN_ANOMALY": 88.5878,
    "EPHEMERIS_TYPE": 0,
    "CLASSIFICATION_TYPE": "U",
    "NORAD_CAT_ID": 42767,
    "ELEMENT_SET_NO": 999,
    "REV_AT_EPOCH": 49963,
    "BSTAR": 0.00018278917,
    "MEAN_MOTION_DOT": 0.00003783,
    "MEAN_MOTION_DDOT": 0
   }
  },
  {
   "norad": 43111,
   "name": "CARTOSAT-2F",
   "intl": "2018-004A",
   "group": "resource",
   "gcat": {
    "class": "D",
    "category": "IMG",
    "owner": "ISRO",
    "state": "IN"
   },
   "omm": {
    "OBJECT_NAME": "CARTOSAT-2F",
    "OBJECT_ID": "2018-004A",
    "EPOCH": "2026-06-26T22:57:07.395840",
    "MEAN_MOTION": 15.19287673,
    "ECCENTRICITY": 0.00016919,
    "INCLINATION": 97.4793,
    "RA_OF_ASC_NODE": 237.4956,
    "ARG_OF_PERICENTER": 166.776,
    "MEAN_ANOMALY": 193.3519,
    "EPHEMERIS_TYPE": 0,
    "CLASSIFICATION_TYPE": "U",
    "NORAD_CAT_ID": 43111,
    "ELEMENT_SET_NO": 999,
    "REV_AT_EPOCH": 46881,
    "BSTAR": 0.00021304538,
    "MEAN_MOTION_DOT": 0.00004427,
    "MEAN_MOTION_DDOT": 0
   }
  },
  {
   "norad": 44804,
   "name": "CARTOSAT-3",
   "intl": "2019-081A",
   "group": "resource",
   "gcat": {
    "class": "D",
    "category": "IMG",
    "owner": "ISRO",
    "state": "IN"
   },
   "omm": {
    "OBJECT_NAME": "CARTOSAT-3",
    "OBJECT_ID": "2019-081A",
    "EPOCH": "2026-06-26T23:18:05.351328",
    "MEAN_MOTION": 15.19205352,
    "ECCENTRICITY": 0.00132624,
    "INCLINATION": 97.4309,
    "RA_OF_ASC_NODE": 239.6809,
    "ARG_OF_PERICENTER": 117.088,
    "MEAN_ANOMALY": 243.171,
    "EPHEMERIS_TYPE": 0,
    "CLASSIFICATION_TYPE": "U",
    "NORAD_CAT_ID": 44804,
    "ELEMENT_SET_NO": 999,
    "REV_AT_EPOCH": 36495,
    "BSTAR": 0.00021885105,
    "MEAN_MOTION_DOT": 0.00004548,
    "MEAN_MOTION_DDOT": 0
   }
  }
 ]
}
