CARTOSAT-2A             
1 32783U 08021A   26177.99009689  .00000867  00000+0  12321-3 0  9999
2 32783  97.7635 226.3641 0013374  80.5378 279.7345 14.79253255980259
CARTOSAT-2B             
1 36795U 10035A   26177.94877528  .00000387  00000+0  59875-4 0  9997
2 36795  97.9954 228.4365 0012000 152.6364 207.5482 14.78671641861294
CARBONITE 1 (CBNT-1)    
1 40718U 15032D   26177.96204826  .00001679  00000+0  20948-3 0  9999
2 40718  97.6510 355.6195 0012937 262.6611  97.3134 14.83614403590791
CARTOSAT-2C             
1 41599U 16040A   26177.94028689  .00004212  00000+0  20276-3 0  9996
2 41599  97.4486 237.7840 0010531 101.4507 258.7911 15.19264103555197
CARTOSAT-2D             
1 41948U 17008A   26177.97223819  .00004733  00000+0  22753-3 0  9994
2 41948  97.4108 237.0954 0004733 194.1076 166.0027 15.19277933519062
CARTOSAT-2E             
1 42767U 17036C   26177.98992477  .00003783  00000+0  18279-3 0  9991
2 42767  97.4275 237.6310 0002203 271.5104  88.5878 15.19236356499637
CARTOSAT-2F             
1 43111U 18004A   26177.95633560  .00004427  00000+0  21305-3 0  9993
2 43111  97.4793 237.4956 0001691 166.7760 193.3519 15.19287673468814
CARTOSAT-3              
1 44804U 19081A   26177.97089527  .00004548  00000+0  21885-3 0  9996
2 44804  97.4309 239.6809 0013262 117.0880 243.1710 15.19205352364958
CARBSAR                 
1 67397U 26004AL  26177.98750836  .00008561  00000+0  40397-3 0  9998
2 67397  97.4535 177.0365 0003919 316.5693  43.5233 15.19694420 25256
CAPELLA-20 (ACADIA-10)  
1 68485U 26067BX  26177.91668981 -.00009074  00000+0 -89903-3 0  9996
2 68485  97.7568 136.0541 0000335  24.6280 139.9895 14.91657302  5702
